#aV2009  6 17  0  0   .00000000      96 DD+AD WGS84 FIT  NGA
## 1536 259200.00000000   900.00000000 54999  .0000000000000
+   31     1  2  3  4  6  7  8  9 10 11 12 13 14 15 16 17 18
+         19 20 21 22 23 24 25 26 27 28 29 30 31 32  0  0  0
+          0  0  0  0  0  0  0  0  0  0  0  0  0  0  0  0  0
+          0  0  0  0  0  0  0  0  0  0  0  0  0  0  0  0  0
+          0  0  0  0  0  0  0  0  0  0  0  0  0  0  0  0  0
++         0  0  0  0  0  0  0  0  0  0  0  0  0  0  0  0  0
++         0  0  0  0  0  0  0  0  0  0  0  0  0  0  0  0  0
++         0  0  0  0  0  0  0  0  0  0  0  0  0  0  0  0  0
++         0  0  0  0  0  0  0  0  0  0  0  0  0  0  0  0  0
++         0  0  0  0  0  0  0  0  0  0  0  0  0  0  0  0  0
%c cc cc ccc ccc cccc cccc cccc cccc ccccc ccccc ccccc ccccc
%c cc cc ccc ccc cccc cccc cccc cccc ccccc ccccc ccccc ccccc
%f  0.0000000  0.000000000  0.00000000000  0.000000000000000
%f  0.0000000  0.000000000  0.00000000000  0.000000000000000
%i    0    0    0    0      0      0      0      0         0
%i    0    0    0    0      0      0      0      0         0
/*      NGA, ST. LOUIS,MO.                                  
/*   EPHEMERIS COMPUTED FROM  3 DAYS OF DATA                
/* CCCCCCCCCCCCCCCCCCCCCCCCCCCCCCCCCCCCCCCCCCCCCCCCCCCCCCCCC
/* CCCCCCCCCCCCCCCCCCCCCCCCCCCCCCCCCCCCCCCCCCCCCCCCCCCCCCCCC
*  2009  6 17  5 15   .00000000                                                 
P  1 -17426.497439  10645.854466  16838.812894    -76.518683                    
V  1   6878.650377 -20551.554076  20106.259904       .054668                    
P  2 -12109.632340 -23149.574333   5804.529443    156.633023                    
V  2   6835.859914   4139.117278  29893.733730       .011696                    
P  3  13666.162524  12108.002411 -19708.441581    407.716873                    
V  3 -23504.676492   6632.075581 -12063.572274       .050787                    
P  4  -1584.134855 -21334.178641  15374.653558   -136.243426                    
V  4  13870.410775  14605.907838  21873.710079      -.158549                    
P  6   8186.790190  14233.058345 -20694.621384    163.608351                    
V  6 -26369.394340   4923.919742  -6914.979775       .130555                    
P  7  15133.792514  -4308.374438 -21437.847813     16.912515                    
V  7  15614.927702  22184.212270   6449.638327      -.006948                    
P  8   5926.905724 -15720.270808 -20480.936204   -207.983236                    
V  8  14827.690974  21338.989545 -12605.195291      -.016428                    
P  9 -19893.080835 -12853.799108  11445.496354     61.616686                    
V  9  -7912.948435 -13498.610178 -27266.808714       .020437                    
P 10  -5445.825785 -18534.315185 -18241.863930    -17.616250                    
V 10  11339.267193 -20046.670014  17464.542026      -.005572                    
P 11  22787.156121   8105.091905  11150.798828     -6.804787                    
V 11   8202.546459  12645.681781 -25122.490635      -.015436                    
P 12 -15655.117332  -1241.929557  21469.285605   -265.152107                    
V 12  10561.982289 -24967.066571   6398.172487       .058653                    
P 13  24670.170411  -6257.014798  -7736.501335    299.577637                    
V 13   9677.748179   1119.353546  30467.330387       .008447                    
P 14 -11436.111486  13793.802842  19682.066387    -93.650907                    
V 14 -24709.977206    773.502466 -15106.329591       .058284                    
P 15 -20087.705974  -8371.716810 -15246.704428   -301.569980                    
V 15  18987.596464  -4430.318806 -22489.848478      -.031108                    
P 16    983.522857  21871.577680 -14802.831233     41.257278                    
V 16  -9922.226515  16311.690636  23587.355929      -.034554                    
P 17  12470.190159 -14240.319185  18625.371397     64.929049                    
V 17  23621.149064   -564.354382 -16496.545907       .021929                    
P 18 -16647.125530  17550.869980 -10287.988851    -47.563889                    
V 18   2825.411196 -13677.705721 -27676.489126       .032273                    
P 19  21479.521737   8579.462622 -13218.979934     22.229486                    
V 19 -16714.180595   2748.071037 -25001.739074      -.012525                    
P 20  16578.869747   -921.004006  20595.489116     79.719518                    
V 20  -9213.796745  24884.275566   8514.820590      -.009806                    
P 21 -13876.867994   7455.987927 -21143.035359      7.920348                    
V 21 -15879.066511 -22515.056523   1821.873577      -.021405                    
P 22 -11465.443293  23911.057425    119.723004    197.334851                    
V 22  -3177.090609  -1573.444016 -31336.935962      -.007229                    
P 23  26274.947557    578.543165   4750.303091    390.216363                    
V 23  -5779.829780   2834.314464  31017.187697       .000275                    
P 24 -18851.065262  -5976.882435 -17475.684212    197.417335                    
V 24 -10698.813892 -19986.154211  18490.184487       .030309                    
P 25  18745.256829   2286.801374 -18254.793337    466.168524                    
V 25  14698.095408  18950.370281  17337.335953       .178487                    
P 26 -26835.601764   1049.221664   -532.846294     63.776130                    
V 26    -77.637885  -1356.080797 -32083.241683       .006591                    
P 27 -19779.892062 -16542.744223   7013.382563     58.185110                    
V 27  -3416.392869  -7543.623812 -30419.087716       .031808                    
P 28  12580.641384 -23065.055648  -2019.969228    -25.503967                    
V 28   1283.280493   4063.674198 -31965.288811      -.001889                    
P 29 -25350.609955   5761.204583  -5224.970495     30.913846                    
V 29  -6988.148859  -2261.126605  30823.711788       .036589                    
P 30 -17074.848947  10867.051774  16783.988345    154.273480                    
V 30   6114.062863 -21322.506404  19677.205419       .027717                    
P 31   3789.541189  21944.123856  14572.074474    -62.425453                    
V 31 -12248.172024 -13564.277187  24085.512736      -.006838                    
P 32  12282.552695   9378.121841  22009.375826    245.953461                    
V 32 -13043.395497  23623.866368  -2585.533611      -.056586                    
EOF
